NORAD_CAT_ID,OBJECT_NAME,OBJECT_TYPE,EPOCH,MEAN_MOTION,ECCENTRICITY,INCLINATION,RA_OF_ASC_NODE,ARG_OF_PERICENTER,MEAN_ANOMALY,BSTAR,MEAN_MOTION_DOT,MEAN_MOTION_DDOT,TLE_LINE0,TLE_LINE1,TLE_LINE2,SEMIMAJOR_AXIS,PERIOD,APOGEE,PERIGEE,DECAYED
53902.0,STARLINK-5021,PAYLOAD,2023-11-07 13:04:33,15.08826035,0.0001399,53.2153,143.7905,88.9128,271.2024,-0.00037502,-6.249e-05,0.0,0 STARLINK-5021,1 53902U 22119S   23311.54483245 -.00006249  00000-0 -37502-3 0  9992,2 53902  53.2153 143.7905 0001399  88.9128 271.2024 15.08826035 63596,6917.923,95.438,540.756,538.82,0.0
53902.0,STARLINK-5021,PAYLOAD,2023-11-07 19:26:06,15.08827573,0.00014,53.2148,142.6014,84.4296,275.6856,-0.00022693,-3.896e-05,0.0,0 STARLINK-5021,1 53902U 22119S   23311.80979497 -.00003896  00000-0 -22693-3 0  9990,2 53902  53.2148 142.6014 0001400  84.4296 275.6856 15.08827573 63217,6917.918,95.438,540.752,538.815,0.0
53902.0,STARLINK-5021,PAYLOAD,2023-11-08 12:55:21,15.08830822,0.0001497,53.2146,139.3302,85.8812,274.2352,2.223e-05,6.6e-07,0.0,0 STARLINK-5021,1 53902U 22119S   23312.53844066  .00000066  00000-0  22230-4 0  9996,2 53902  53.2146 139.3302 0001497  85.8812 274.2352 15.08830822 63748,6917.908,95.438,540.809,538.738,0.0
53902.0,STARLINK-5021,PAYLOAD,2023-11-08 19:16:53,15.08834473,0.0001404,53.2147,138.1405,84.8005,275.3147,0.00023086,3.388e-05,0.0,0 STARLINK-5021,1 53902U 22119S   23312.80340219  .00003388  00000-0  23086-3 0  9996,2 53902  53.2147 138.1405 0001404  84.8005 275.3147 15.08834473 63785,6917.897,95.438,540.734,538.791,0.0
53902.0,STARLINK-5021,PAYLOAD,2023-11-09 12:46:08,15.08839639,0.0001314,53.2146,134.8701,82.2836,277.8305,0.00049174,7.547e-05,0.0,0 STARLINK-5021,1 53902U 22119S   23313.53204402  .00007547  00000-0  49174-3 0  9997,2 53902  53.2146 134.8701 0001314  82.2836 277.8305 15.08839639 63894,6917.881,95.438,540.656,538.837,0.0
53902.0,STARLINK-5021,PAYLOAD,2023-11-09 19:07:40,15.08851375,0.0001423,53.2145,133.6803,82.4749,277.6405,0.00049933,7.67e-05,0.0,0 STARLINK-5021,1 53902U 22119S   23313.79699989  .00007670  00000-0  49933-3 0  9993,2 53902  53.2145 133.6803 0001423  82.4749 277.6405 15.08851375 63934,6917.846,95.437,540.695,538.726,0.0
53902.0,STARLINK-5021,PAYLOAD,2023-11-10 04:39:59,15.08849299,0.0001428,53.2144,131.8963,81.0784,279.037,0.00028801,4.3e-05,0.0,0 STARLINK-5021,1 53902U 22119S   23314.19443876  .00004300  00000-0  28801-3 0  9998,2 53902  53.2144 131.8963 0001428  81.0784 279.0370 15.08849299 63578,6917.852,95.437,540.705,538.729,0.0
53902.0,STARLINK-5021,PAYLOAD,2023-11-10 18:58:27,15.0884466,0.0001407,53.2142,129.2199,81.971,278.1442,8.8425e-05,1.12e-05,0.0,0 STARLINK-5021,1 53902U 22119S   23314.79059788  .00001120  00000-0  88425-4 0  9995,2 53902  53.2142 129.2199 0001407  81.9710 278.1442 15.08844660 63660,6917.866,95.437,540.704,538.758,0.0
53902.0,STARLINK-5021,PAYLOAD,2023-11-11 18:49:14,15.08844282,0.0001305,53.2156,124.7595,83.0287,277.0854,3.3092e-05,2.39e-06,0.0,0 STARLINK-5021,1 53902U 22119S   23315.78420010  .00000239  00000-0  33092-4 0  9995,2 53902  53.2156 124.7595 0001305  83.0287 277.0854 15.08844282 63816,6917.867,95.437,540.635,538.83,0.0
53902.0,STARLINK-5021,PAYLOAD,2023-11-11 20:24:37,15.08844348,0.000131,53.2156,124.4621,82.5892,277.5249,2.4738e-05,1.06e-06,0.0,0 STARLINK-5021,1 53902U 22119S   23315.85043903  .00000106  00000-0  24738-4 0  9995,2 53902  53.2156 124.4621 0001310  82.5892 277.5249 15.08844348 64249,6917.867,95.437,540.638,538.826,0.0
53902.0,STARLINK-5021,PAYLOAD,2023-11-12 10:43:06,15.08838213,0.0001275,53.2157,121.7853,81.7699,278.3438,8.1689e-05,1.012e-05,0.0,0 STARLINK-5021,1 53902U 22119S   23316.44660157  .00001012  00000-0  81689-4 0  9992,2 53902  53.2157 121.7853 0001275  81.7699 278.3438 15.08838213 64336,6917.886,95.438,540.633,538.869,0.0
53902.0,STARLINK-5021,PAYLOAD,2023-11-12 18:40:01,15.08841695,0.0001316,53.2157,120.2981,79.3275,280.7865,8.127e-05,1.006e-05,0.0,0 STARLINK-5021,1 53902U 22119S   23316.77779961  .00001006  00000-0  81270-4 0  9991,2 53902  53.2157 120.2981 0001316  79.3275 280.7865 15.08841695 64385,6917.875,95.437,540.651,538.83,0.0
53902.0,STARLINK-5021,PAYLOAD,2023-11-13 10:33:53,15.08841861,0.0001273,53.2154,117.3243,90.1121,270.0017,7.3276e-05,8.79e-06,0.0,0 STARLINK-5021,1 53902U 22119S   23317.44019926  .00000879  00000-0  73276-4 0  9998,2 53902  53.2154 117.3243 0001273  90.1121 270.0017 15.08841861 64064,6917.875,95.437,540.62,538.859,0.0
53902.0,STARLINK-5021,PAYLOAD,2023-11-13 16:55:25,15.08842841,0.0001266,53.2154,116.135,89.7169,270.3968,7.4739e-05,9.02e-06,0.0,0 STARLINK-5021,1 53902U 22119S   23317.70515820  .00000902  00000-0  74739-4 0  9993,2 53902  53.2154 116.1350 0001266  89.7169 270.3968 15.08842841 64526,6917.872,95.437,540.613,538.861,0.0
53902.0,STARLINK-5021,PAYLOAD,2023-11-14 04:03:07,15.08840487,0.0001238,53.2154,114.0532,89.0465,271.0669,5.7163e-05,6.22e-06,0.0,0 STARLINK-5021,1 53902U 22119S   23318.16883971  .00000622  00000-0  57163-4 0  9990,2 53902  53.2154 114.0532 0001238  89.0465 271.0669 15.08840487 64593,6917.879,95.438,540.6,538.887,0.0
53902.0,STARLINK-5021,PAYLOAD,2023-11-14 16:46:13,15.08837542,0.0001307,53.2159,111.6746,80.9062,279.2078,5.001e-06,-2.08e-06,0.0,0 STARLINK-5021,1 53902U 22119S   23318.69876423 -.00000208  00000-0  50010-5 0  9998,2 53902  53.2159 111.6746 0001307  80.9062 279.2078 15.08837542 64253,6917.888,95.438,540.657,538.849,0.0
53902.0,STARLINK-5021,PAYLOAD,2023-11-14 19:56:59,15.0883875,0.0001385,53.215,111.0795,88.2113,271.9038,5.2176e-05,5.43e-06,0.0,0 STARLINK-5021,1 53902U 22119S   23318.83124194  .00000543  00000-0  52176-4 0  9990,2 53902  53.2150 111.0795 0001385  88.2113 271.9038 15.08838750 64691,6917.884,95.438,540.707,538.791,0.0
53902.0,STARLINK-5021,PAYLOAD,2023-11-15 10:15:27,15.08843156,0.0001457,53.2139,108.4024,88.5742,271.5417,4.4256e-05,4.16e-06,0.0,0 STARLINK-5021,1 53902U 22119S   23319.42739919  .00000416  00000-0  44256-4 0  9992,2 53902  53.2139 108.4024 0001457  88.5742 271.5417 15.08843156 64361,6917.871,95.437,540.744,538.728,0.0
53902.0,STARLINK-5021,PAYLOAD,2023-11-15 13:26:13,15.08843796,0.0001467,53.2143,107.8078,88.0226,272.0934,4.7219e-05,4.64e-06,0.0,0 STARLINK-5021,1 53902U 22119S   23319.55987846  .00000464  00000-0  47219-4 0  9995,2 53902  53.2143 107.8078 0001467  88.0226 272.0934 15.08843796 64800,6917.869,95.437,540.749,538.719,0.0
53902.0,STARLINK-5021,PAYLOAD,2023-11-15 16:36:59,15.08845253,0.0001469,53.2143,107.2131,87.5217,272.5943,5.7423e-05,6.26e-06,0.0,0 STARLINK-5021,1 53902U 22119S   23319.69235692  .00000626  00000-0  57423-4 0  9993,2 53902  53.2143 107.2131 0001469  87.5217 272.5943 15.08845253 64827,6917.864,95.437,540.746,538.713,0.0
53902.0,STARLINK-5021,PAYLOAD,2023-11-16 10:06:14,15.08835745,0.0001455,53.2151,103.9414,88.4263,271.6896,6.016e-05,6.7e-06,0.0,0 STARLINK-5021,1 53902U 22119S   23320.42100311  .00000670  00000-0  60160-4 0  9996,2 53902  53.2151 103.9414 0001455  88.4263 271.6896 15.08835745 64517,6917.893,95.438,540.765,538.752,0.0
53902.0,STARLINK-5021,PAYLOAD,2023-11-16 16:27:47,15.08836662,0.0001462,53.2151,102.7523,87.1895,272.9265,6.1884e-05,6.97e-06,0.0,0 STARLINK-5021,1 53902U 22119S   23320.68596281  .00000697  00000-0  61884-4 0  9992,2 53902  53.2151 102.7523 0001462  87.1895 272.9265 15.08836662 64973,6917.891,95.438,540.767,538.744,0.0
53902.0,STARLINK-5021,PAYLOAD,2023-11-17 13:07:47,15.08843108,0.0001354,53.2182,98.887,84.4587,275.656,6.8016e-06,-1.8e-06,0.0,0 STARLINK-5021,1 53902U 22119S   23321.54708176 -.00000180  00000-0  68016-5 0  9999,2 53902  53.2182  98.8870 0001354  84.4587 275.6560 15.08843108 65102,6917.871,95.437,540.673,538.799,0.0
53902.0,STARLINK-5021,PAYLOAD,2023-11-17 16:18:33,15.08845845,0.0001312,53.2178,98.2929,84.2697,275.8445,-4.0617e-06,-3.53e-06,0.0,0 STARLINK-5021,1 53902U 22119S   23321.67955993 -.00000353  00000-0 -40617-5 0  9994,2 53902  53.2178  98.2929 0001312  84.2697 275.8445 15.08845845 64709,6917.863,95.437,540.635,538.82,0.0
53902.0,STARLINK-5021,PAYLOAD,2023-11-18 12:58:35,15.0883559,0.0001318,53.218,94.4283,88.0244,272.0899,3.7797e-05,3.14e-06,0.0,0 STARLINK-5021,1 53902U 22119S   23322.54068707  .00000314  00000-0  37797-4 0  9998,2 53902  53.2180  94.4283 0001318  88.0244 272.0899 15.08835590 64831,6917.894,95.438,540.671,538.847,0.0
53902.0,STARLINK-5021,PAYLOAD,2023-11-18 17:44:44,15.08836091,0.0001403,53.2182,93.5359,87.8022,272.3131,3.3328e-05,2.42e-06,0.0,0 STARLINK-5021,1 53902U 22119S   23322.73940739  .00000242  00000-0  33328-4 0  9999,2 53902  53.2182  93.5359 0001403  87.8022 272.3131 15.08836091 65282,6917.892,95.438,540.728,538.787,0.0
53902.0,STARLINK-5021,PAYLOAD,2023-11-19 12:49:22,15.08839722,0.0001355,53.2183,89.9675,88.0662,272.0485,2.1845e-05,6e-07,0.0,0 STARLINK-5021,1 53902U 22119S   23323.53428687  .00000060  00000-0  21845-4 0  9990,2 53902  53.2183  89.9675 0001355  88.0662 272.0485 15.08839722 65409,6917.881,95.438,540.684,538.809,0.0
53902.0,STARLINK-5021,PAYLOAD,2023-11-19 19:10:54,15.0884457,0.0001397,53.2178,88.7779,89.2653,270.8499,6.0655e-05,6.78e-06,0.0,0 STARLINK-5021,1 53902U 22119S   23323.79924237  .00000678  00000-0  60655-4 0  9997,2 53902  53.2178  88.7779 0001397  89.2653 270.8499 15.08844570 65020,6917.866,95.437,540.698,538.765,0.0
53902.0,STARLINK-5021,PAYLOAD,2023-11-20 01:32:27,15.08837158,0.0001348,53.217,87.5875,89.5548,270.5598,5.3907e-05,5.7e-06,0.0,0 STARLINK-5021,1 53902U 22119S   23324.06420684  .00000570  00000-0  53907-4 0  9998,2 53902  53.2170  87.5875 0001348  89.5548 270.5598 15.08837158 65063,6917.889,95.438,540.687,538.822,0.0
53902.0,STARLINK-5021,PAYLOAD,2023-11-20 14:15:32,15.08841543,0.0001354,53.2171,85.2085,90.3417,269.773,7.4493e-05,8.98e-06,0.0,0 STARLINK-5021,1 53902U 22119S   23324.59412446  .00000898  00000-0  74493-4 0  9999,2 53902  53.2171  85.2085 0001354  90.3417 269.7730 15.08841543 65560,6917.876,95.437,540.677,538.804,0.0
